start=new Date('2022-09-12T00:00:00.000Z').valueOf();
sats=[{"OBJECT_NAME":"STARLINK-4540","DECAY_DATE":null,"ELEMENT_SET_NO":"999","MEAN_ANOMALY":"346.4338","INCLINATION":"53.2175","MEAN_MOTION":"15.73205176","MEAN_MOTION_DOT":"-0.00030074","ARG_OF_PERICENTER":"63.9151","BSTAR":"-0.00021058000000","CLASSIFICATION_TYPE":"U","MEAN_ELEMENT_THEORY":"SGP4","NORAD_CAT_ID":"53428","FILE":"3569361","PERIOD":"91.533","RCS_SIZE":"LARGE","CENTER_NAME":"EARTH","REF_FRAME":"TEME","GP_ID":"212359671","ECCENTRICITY":"0.00012260","TLE_LINE1":"1 53428U 22097AS  22254.91667824 -.00030074  00000-0 -21058-3 0  9995","TLE_LINE2":"2 53428  53.2175  86.0941 0001226  63.9151 346.4338 15.73205176  1303","PERIAPSIS":"348.921","MEAN_MOTION_DDOT":"0.0000000000000","SEMIMAJOR_AXIS":"6727.880","EPOCH":"2022-09-11T22:00:00.999936","TIME_SYSTEM":"UTC","OBJECT_TYPE":"PAYLOAD","REV_AT_EPOCH":"130","EPHEMERIS_TYPE":"0","COUNTRY_CODE":"US","APOAPSIS":"350.570","SITE":"AFETR","LAUNCH_DATE":"2022-08-10","RA_OF_ASC_NODE":"86.0941","OBJECT_ID":"2022-097AS"},{"MEAN_ANOMALY":"331.4586","MEAN_MOTION_DOT":"-0.00010309","INCLINATION":"53.2176","MEAN_MOTION":"15.73207612","OBJECT_NAME":"STARLINK-4543","ELEMENT_SET_NO":"999","DECAY_DATE":null,"PERIOD":"91.533","RCS_SIZE":"LARGE","CENTER_NAME":"EARTH","GP_ID":"212332768","ECCENTRICITY":"0.00011810","REF_FRAME":"TEME","BSTAR":"-0.00006910400000","CLASSIFICATION_TYPE":"U","ARG_OF_PERICENTER":"78.2513","NORAD_CAT_ID":"53429","FILE":"3569250","MEAN_ELEMENT_THEORY":"SGP4","REV_AT_EPOCH":"557","OBJECT_TYPE":"PAYLOAD","EPHEMERIS_TYPE":"0","PERIAPSIS":"348.944","EPOCH":"2022-09-11T22:00:00.999936","SEMIMAJOR_AXIS":"6727.873","MEAN_MOTION_DDOT":"0.0000000000000","TLE_LINE2":"2 53429  53.2176  86.0941 0001181  78.2513 331.4586 15.73207612  5575","TLE_LINE1":"1 53429U 22097AT  22254.91667824 -.00010309  00000-0 -69104-4 0  9990","TIME_SYSTEM":"UTC","RA_OF_ASC_NODE":"86.0941","OBJECT_ID":"2022-097AT","APOAPSIS":"350.533","COUNTRY_CODE":"US","LAUNCH_DATE":"2022-08-10","SITE":"AFETR"},{"COUNTRY_CODE":"US","APOAPSIS":"350.519","SITE":"AFETR","LAUNCH_DATE":"2022-08-10","RA_OF_ASC_NODE":"86.0939","OBJECT_ID":"2022-097AU","TLE_LINE2":"2 53430  53.2168  86.0939 0001258  65.1780 345.7554 15.73230677  1308","TLE_LINE1":"1 53430U 22097AU  22254.91667824 -.00040329  00000-0 -28393-3 0  9991","PERIAPSIS":"348.826","SEMIMAJOR_AXIS":"6727.808","EPOCH":"2022-09-11T22:00:00.999936","MEAN_MOTION_DDOT":"0.0000000000000","TIME_SYSTEM":"UTC","OBJECT_TYPE":"PAYLOAD","REV_AT_EPOCH":"130","EPHEMERIS_TYPE":"0","CLASSIFICATION_TYPE":"U","BSTAR":"-0.00028393000000","ARG_OF_PERICENTER":"65.1780","MEAN_ELEMENT_THEORY":"SGP4","FILE":"3569361","NORAD_CAT_ID":"53430","RCS_SIZE":"LARGE","CENTER_NAME":"EARTH","PERIOD":"91.531","REF_FRAME":"TEME","GP_ID":"212360023","ECCENTRICITY":"0.00012580","OBJECT_NAME":"STARLINK-4538","ELEMENT_SET_NO":"999","DECAY_DATE":null,"MEAN_ANOMALY":"345.7554","MEAN_MOTION":"15.73230677","INCLINATION":"53.2168","MEAN_MOTION_DOT":"-0.00040329"},{"OBJECT_TYPE":"PAYLOAD","REV_AT_EPOCH":"557","EPHEMERIS_TYPE":"0","TLE_LINE1":"1 53431U 22097AV  22254.91667824 -.00002397  00000-0 -12661-4 0  9997","TLE_LINE2":"2 53431  53.2161  86.0969 0001306  58.1790 350.9676 15.73208009  5572","PERIAPSIS":"348.859","MEAN_MOTION_DDOT":"0.0000000000000","SEMIMAJOR_AXIS":"6727.872","EPOCH":"2022-09-11T22:00:00.999936","TIME_SYSTEM":"UTC","RA_OF_ASC_NODE":"86.0969","OBJECT_ID":"2022-097AV","COUNTRY_CODE":"US","APOAPSIS":"350.616","SITE":"AFETR","LAUNCH_DATE":"2022-08-10","MEAN_ANOMALY":"350.9676","INCLINATION":"53.2161","MEAN_MOTION":"15.73208009","MEAN_MOTION_DOT":"-0.00002397","OBJECT_NAME":"STARLINK-4548","ELEMENT_SET_NO":"999","DECAY_DATE":null,"CENTER_NAME":"EARTH","RCS_SIZE":"LARGE","PERIOD":"91.533","GP_ID":"212332765","REF_FRAME":"TEME","ECCENTRICITY":"0.00013060","CLASSIFICATION_TYPE":"U","BSTAR":"-0.00001266100000","ARG_OF_PERICENTER":"58.1790","MEAN_ELEMENT_THEORY":"SGP4","NORAD_CAT_ID":"53431","FILE":"3569250"},{"SITE":"AFETR","LAUNCH_DATE":"2022-08-10","COUNTRY_CODE":"US","APOAPSIS":"350.570","OBJECT_ID":"2022-097AW","RA_OF_ASC_NODE":"86.0924","TIME_SYSTEM":"UTC","TLE_LINE2":"2 53432  53.2168  86.0924 0001263  62.8913 349.7888 15.73213922  1300","TLE_LINE1":"1 53432U 22097AW  22254.91667824 -.00032538  00000-0 -22818-3 0  9992","PERIAPSIS":"348.871","MEAN_MOTION_DDOT":"0.0000000000000","SEMIMAJOR_AXIS":"6727.855","EPOCH":"2022-09-11T22:00:00.999936","EPHEMERIS_TYPE":"0","OBJECT_TYPE":"PAYLOAD","REV_AT_EPOCH":"130","MEAN_ELEMENT_THEORY":"SGP4","FILE":"3569361","NORAD_CAT_ID":"53432","BSTAR":"-0.00022818000000","ARG_OF_PERICENTER":"62.8913","CLASSIFICATION_TYPE":"U","GP_ID":"212359257","ECCENTRICITY":"0.00012630","REF_FRAME":"TEME","PERIOD":"91.532","RCS_SIZE":"LARGE","CENTER_NAME":"EARTH","DECAY_DATE":null,"ELEMENT_SET_NO":"999","OBJECT_NAME":"STARLINK-4557","MEAN_MOTION":"15.73213922","INCLINATION":"53.2168","MEAN_MOTION_DOT":"-0.00032538","MEAN_ANOMALY":"349.7888"},{"RCS_SIZE":"LARGE","PERIOD":"91.532","CENTER_NAME":"EARTH","ECCENTRICITY":"0.00013660","GP_ID":"212359979","REF_FRAME":"TEME","BSTAR":"-0.00047604000000","CLASSIFICATION_TYPE":"U","ARG_OF_PERICENTER":"63.9839","MEAN_ELEMENT_THEORY":"SGP4","NORAD_CAT_ID":"53433","FILE":"3569361","MEAN_ANOMALY":"347.5406","INCLINATION":"53.2179","MEAN_MOTION":"15.73226948","MEAN_MOTION_DOT":"-0.00066976","OBJECT_NAME":"STARLINK-4549","DECAY_DATE":null,"ELEMENT_SET_NO":"999","RA_OF_ASC_NODE":"86.0934","OBJECT_ID":"2022-097AX","COUNTRY_CODE":"US","APOAPSIS":"350.602","SITE":"AFETR","LAUNCH_DATE":"2022-08-10","OBJECT_TYPE":"PAYLOAD","REV_AT_EPOCH":"130","EPHEMERIS_TYPE":"0","TLE_LINE2":"2 53433  53.2179  86.0934 0001366  63.9839 347.5406 15.73226948  1301","TLE_LINE1":"1 53433U 22097AX  22254.91667824 -.00066976  00000-0 -47604-3 0  9996","EPOCH":"2022-09-11T22:00:00.999936","PERIAPSIS":"348.764","SEMIMAJOR_AXIS":"6727.818","MEAN_MOTION_DDOT":"0.0000000000000","TIME_SYSTEM":"UTC"},{"RA_OF_ASC_NODE":"86.0891","OBJECT_ID":"2022-097AY","COUNTRY_CODE":"US","APOAPSIS":"350.559","SITE":"AFETR","LAUNCH_DATE":"2022-08-10","OBJECT_TYPE":"PAYLOAD","REV_AT_EPOCH":"558","EPHEMERIS_TYPE":"0","TLE_LINE1":"1 53434U 22097AY  22254.91667824 -.00031620  00000-0 -22148-3 0  9991","TLE_LINE2":"2 53434  53.2180  86.0891 0001293  61.3037 352.5941 15.73225094  5582","PERIAPSIS":"348.819","EPOCH":"2022-09-11T22:00:00.999936","SEMIMAJOR_AXIS":"6727.824","MEAN_MOTION_DDOT":"0.0000000000000","TIME_SYSTEM":"UTC","PERIOD":"91.532","RCS_SIZE":"LARGE","CENTER_NAME":"EARTH","GP_ID":"212332516","ECCENTRICITY":"0.00012930","REF_FRAME":"TEME","BSTAR":"-0.00022148000000","CLASSIFICATION_TYPE":"U","ARG_OF_PERICENTER":"61.3037","MEAN_ELEMENT_THEORY":"SGP4","FILE":"3569250","NORAD_CAT_ID":"53434","MEAN_ANOMALY":"352.5941","MEAN_MOTION":"15.73225094","INCLINATION":"53.2180","MEAN_MOTION_DOT":"-0.00031620","OBJECT_NAME":"STARLINK-4498","DECAY_DATE":null,"ELEMENT_SET_NO":"999"},{"TIME_SYSTEM":"UTC","TLE_LINE1":"1 53435U 22097AZ  22254.91667824 -.00027270  00000-0 -19036-3 0  9990","TLE_LINE2":"2 53435  53.2166  86.0905 0001207  62.8890 349.1965 15.73218703  1304","PERIAPSIS":"348.895","SEMIMAJOR_AXIS":"6727.842","EPOCH":"2022-09-11T22:00:00.999936","MEAN_MOTION_DDOT":"0.0000000000000","EPHEMERIS_TYPE":"0","OBJECT_TYPE":"PAYLOAD","REV_AT_EPOCH":"130","SITE":"AFETR","LAUNCH_DATE":"2022-08-10","COUNTRY_CODE":"US","APOAPSIS":"350.519","OBJECT_ID":"2022-097AZ","RA_OF_ASC_NODE":"86.0905","ELEMENT_SET_NO":"999","DECAY_DATE":null,"OBJECT_NAME":"STARLINK-4542","MEAN_MOTION":"15.73218703","INCLINATION":"53.2166","MEAN_MOTION_DOT":"-0.00027270","MEAN_ANOMALY":"349.1965","MEAN_ELEMENT_THEORY":"SGP4","FILE":"3569361","NORAD_CAT_ID":"53435","ARG_OF_PERICENTER":"62.8890","BSTAR":"-0.00019036000000","CLASSIFICATION_TYPE":"U","ECCENTRICITY":"0.00012070","GP_ID":"212359103","REF_FRAME":"TEME","RCS_SIZE":"LARGE","PERIOD":"91.532","CENTER_NAME":"EARTH"},{"MEAN_MOTION":"15.73208951","INCLINATION":"53.2176","MEAN_MOTION_DOT":"-0.00007141","MEAN_ANOMALY":"352.1777","DECAY_DATE":null,"ELEMENT_SET_NO":"999","OBJECT_NAME":"STARLINK-4527","GP_ID":"212359672","ECCENTRICITY":"0.00010260","REF_FRAME":"TEME","RCS_SIZE":"LARGE","PERIOD":"91.533","CENTER_NAME":"EARTH","MEAN_ELEMENT_THEORY":"SGP4","FILE":"3569361","NORAD_CAT_ID":"53436","BSTAR":"-0.00004649000000","CLASSIFICATION_TYPE":"U","ARG_OF_PERICENTER":"62.1920","EPHEMERIS_TYPE":"0","OBJECT_TYPE":"PAYLOAD","REV_AT_EPOCH":"130","TIME_SYSTEM":"UTC","TLE_LINE2":"2 53436  53.2176  86.0741 0001026  62.1920 352.1777 15.73208951  1309","TLE_LINE1":"1 53436U 22097BA  22254.91667824 -.00007141  00000-0 -46490-4 0  9991","PERIAPSIS":"349.044","EPOCH":"2022-09-11T22:00:00.999936","SEMIMAJOR_AXIS":"6727.870","MEAN_MOTION_DDOT":"0.0000000000000","OBJECT_ID":"2022-097BA","RA_OF_ASC_NODE":"86.0741","SITE":"AFETR","LAUNCH_DATE":"2022-08-10","COUNTRY_CODE":"US","APOAPSIS":"350.425"},{"REV_AT_EPOCH":"558","OBJECT_TYPE":"PAYLOAD","EPHEMERIS_TYPE":"0","EPOCH":"2022-09-11T22:00:00.999936","PERIAPSIS":"349.020","SEMIMAJOR_AXIS":"6727.849","MEAN_MOTION_DDOT":"0.0000000000000","TLE_LINE1":"1 53438U 22097BC  22254.91667824 -.00024997  00000-0 -17410-3 0  9990","TLE_LINE2":"2 53438  53.2163  86.0839 0001032  62.7092 352.3705 15.73216097  5585","TIME_SYSTEM":"UTC","RA_OF_ASC_NODE":"86.0839","OBJECT_ID":"2022-097BC","APOAPSIS":"350.409","COUNTRY_CODE":"US","LAUNCH_DATE":"2022-08-10","SITE":"AFETR","MEAN_ANOMALY":"352.3705","MEAN_MOTION_DOT":"-0.00024997","MEAN_MOTION":"15.73216097","INCLINATION":"53.2163","OBJECT_NAME":"STARLINK-4526","ELEMENT_SET_NO":"999","DECAY_DATE":null,"CENTER_NAME":"EARTH","RCS_SIZE":"LARGE","PERIOD":"91.532","GP_ID":"212332536","ECCENTRICITY":"0.00010320","REF_FRAME":"TEME","BSTAR":"-0.00017410000000","CLASSIFICATION_TYPE":"U","ARG_OF_PERICENTER":"62.7092","FILE":"3569258","NORAD_CAT_ID":"53438","MEAN_ELEMENT_THEORY":"SGP4"}];
